KUIPER-00268            
1 67790U 26030AC  26064.65766794  .00031330  00000+0  89226-3 0  9997
2 67790  51.8843 238.5524 0002511  36.0636 324.0519 15.35825832  4473
KUIPER-00270            
1 67791U 26030AD  26064.74193688  .00024300  00000+0  72461-3 0  9996
2 67791  51.8813 238.3532 0010162  45.6470 314.5347 15.34476159  4488
KUIPER-00274            
1 67792U 26030AE  26064.70353839 -.00049366  00000+0 -16099-2 0  9994
2 67792  51.8815 238.8431 0017974  60.7494 299.5284 15.31086175  4479
KUIPER-00275            
1 67793U 26030AF  26064.73930583  .00023668  00000+0  70472-3 0  9996
2 67793  51.8845 238.3451 0008975  42.6068 317.5612 15.34549227  4489
KUIPER-00276            
1 67794U 26030AG  26064.70744883 -.00035166  00000+0 -11330-2 0  9995
2 67794  51.8812 238.8668 0019075  54.5943 305.6820 15.31293588  4477
KUIPER-00279            
1 67795U 26030AH  26064.73238324  .00032335  00000+0  93747-3 0  9993
2 67795  51.8805 238.2905 0006545  36.0821 324.0606 15.35235109  4483
